SENTINEL-6              
1 46984U 20086A   24018.54508966 -.00000042  00000+0  82010-4 0  9996
2 46984  66.0404 164.1541 0007692 269.6792  90.3342 12.80930233147532
